STARLINK-2654
1 18454C 21040AC  21326.17971808 -.00019055  00000-0 -12768-2 0  3269
2 18454  53.0563  22.9237 0001557  52.3910 217.5820 15.06415286    16
